<?xml version="1.0" encoding="UTF-8"?>
<ndm xmlns:xsi="http://www.w3.org/2001/XMLSchema-instance" xsi:noNamespaceSchemaLocation="https://sanaregistry.org/r/ndmxml_unqualified/ndmxml-2.0.0-master-2.0.xsd">
<omm id="CCSDS_OMM_VERS" version="2.0">
<header><CREATION_DATE/><ORIGINATOR/></header><body><segment><metadata><OBJECT_NAME>QIANFAN-97</OBJECT_NAME><OBJECT_ID>2025-233G</OBJECT_ID><CENTER_NAME>EARTH</CENTER_NAME><REF_FRAME>TEME</REF_FRAME><TIME_SYSTEM>UTC</TIME_SYSTEM><MEAN_ELEMENT_THEORY>SGP4</MEAN_ELEMENT_THEORY></metadata><data><meanElements><EPOCH>2025-12-11T00:01:26.901120</EPOCH><MEAN_MOTION>13.86104018</MEAN_MOTION><ECCENTRICITY>.00176387</ECCENTRICITY><INCLINATION>88.9961</INCLINATION><RA_OF_ASC_NODE>62.3461</RA_OF_ASC_NODE><ARG_OF_PERICENTER>53.2952</ARG_OF_PERICENTER><MEAN_ANOMALY>306.9837</MEAN_ANOMALY></meanElements><tleParameters><EPHEMERIS_TYPE>0</EPHEMERIS_TYPE><CLASSIFICATION_TYPE>U</CLASSIFICATION_TYPE><NORAD_CAT_ID>66039</NORAD_CAT_ID><ELEMENT_SET_NO>999</ELEMENT_SET_NO><REV_AT_EPOCH>773</REV_AT_EPOCH><BSTAR>.27197282E-3</BSTAR><MEAN_MOTION_DOT>.327E-5</MEAN_MOTION_DOT><MEAN_MOTION_DDOT>0</MEAN_MOTION_DDOT></tleParameters></data></segment></body></omm>
<omm id="CCSDS_OMM_VERS" version="2.0">
<header><CREATION_DATE/><ORIGINATOR/></header><body><segment><metadata><OBJECT_NAME>QIANFAN-98</OBJECT_NAME><OBJECT_ID>2025-233H</OBJECT_ID><CENTER_NAME>EARTH</CENTER_NAME><REF_FRAME>TEME</REF_FRAME><TIME_SYSTEM>UTC</TIME_SYSTEM><MEAN_ELEMENT_THEORY>SGP4</MEAN_ELEMENT_THEORY></metadata><data><meanElements><EPOCH>2025-12-10T13:35:01.502304</EPOCH><MEAN_MOTION>13.99174995</MEAN_MOTION><ECCENTRICITY>.0016518</ECCENTRICITY><INCLINATION>88.9961</INCLINATION><RA_OF_ASC_NODE>62.3370</RA_OF_ASC_NODE><ARG_OF_PERICENTER>51.4807</ARG_OF_PERICENTER><MEAN_ANOMALY>308.7850</MEAN_ANOMALY></meanElements><tleParameters><EPHEMERIS_TYPE>0</EPHEMERIS_TYPE><CLASSIFICATION_TYPE>U</CLASSIFICATION_TYPE><NORAD_CAT_ID>66040</NORAD_CAT_ID><ELEMENT_SET_NO>999</ELEMENT_SET_NO><REV_AT_EPOCH>770</REV_AT_EPOCH><BSTAR>.8075E-4</BSTAR><MEAN_MOTION_DOT>.131E-5</MEAN_MOTION_DOT><MEAN_MOTION_DDOT>0</MEAN_MOTION_DDOT></tleParameters></data></segment></body></omm>
<omm id="CCSDS_OMM_VERS" version="2.0">
<header><CREATION_DATE/><ORIGINATOR/></header><body><segment><metadata><OBJECT_NAME>QIANFAN-99</OBJECT_NAME><OBJECT_ID>2025-233J</OBJECT_ID><CENTER_NAME>EARTH</CENTER_NAME><REF_FRAME>TEME</REF_FRAME><TIME_SYSTEM>UTC</TIME_SYSTEM><MEAN_ELEMENT_THEORY>SGP4</MEAN_ELEMENT_THEORY></metadata><data><meanElements><EPOCH>2025-12-11T05:13:06.655296</EPOCH><MEAN_MOTION>13.84332924</MEAN_MOTION><ECCENTRICITY>.00171819</ECCENTRICITY><INCLINATION>88.9960</INCLINATION><RA_OF_ASC_NODE>62.3228</RA_OF_ASC_NODE><ARG_OF_PERICENTER>48.3777</ARG_OF_PERICENTER><MEAN_ANOMALY>311.8861</MEAN_ANOMALY></meanElements><tleParameters><EPHEMERIS_TYPE>0</EPHEMERIS_TYPE><CLASSIFICATION_TYPE>U</CLASSIFICATION_TYPE><NORAD_CAT_ID>66041</NORAD_CAT_ID><ELEMENT_SET_NO>999</ELEMENT_SET_NO><REV_AT_EPOCH>776</REV_AT_EPOCH><BSTAR>.36142275E-3</BSTAR><MEAN_MOTION_DOT>.417E-5</MEAN_MOTION_DOT><MEAN_MOTION_DDOT>0</MEAN_MOTION_DDOT></tleParameters></data></segment></body></omm>
<omm id="CCSDS_OMM_VERS" version="2.0">
<header><CREATION_DATE/><ORIGINATOR/></header><body><segment><metadata><OBJECT_NAME>QIANFAN-100</OBJECT_NAME><OBJECT_ID>2025-233K</OBJECT_ID><CENTER_NAME>EARTH</CENTER_NAME><REF_FRAME>TEME</REF_FRAME><TIME_SYSTEM>UTC</TIME_SYSTEM><MEAN_ELEMENT_THEORY>SGP4</MEAN_ELEMENT_THEORY></metadata><data><meanElements><EPOCH>2025-12-10T15:46:52.151520</EPOCH><MEAN_MOTION>13.95342302</MEAN_MOTION><ECCENTRICITY>.00163407</ECCENTRICITY><INCLINATION>88.9967</INCLINATION><RA_OF_ASC_NODE>62.3183</RA_OF_ASC_NODE><ARG_OF_PERICENTER>51.9794</ARG_OF_PERICENTER><MEAN_ANOMALY>308.2854</MEAN_ANOMALY></meanElements><tleParameters><EPHEMERIS_TYPE>0</EPHEMERIS_TYPE><CLASSIFICATION_TYPE>U</CLASSIFICATION_TYPE><NORAD_CAT_ID>66042</NORAD_CAT_ID><ELEMENT_SET_NO>999</ELEMENT_SET_NO><REV_AT_EPOCH>771</REV_AT_EPOCH><BSTAR>.37575114E-3</BSTAR><MEAN_MOTION_DOT>.522E-5</MEAN_MOTION_DOT><MEAN_MOTION_DDOT>0</MEAN_MOTION_DDOT></tleParameters></data></segment></body></omm>
<omm id="CCSDS_OMM_VERS" version="2.0">
<header><CREATION_DATE/><ORIGINATOR/></header><body><segment><metadata><OBJECT_NAME>QIANFAN-101</OBJECT_NAME><OBJECT_ID>2025-233L</OBJECT_ID><CENTER_NAME>EARTH</CENTER_NAME><REF_FRAME>TEME</REF_FRAME><TIME_SYSTEM>UTC</TIME_SYSTEM><MEAN_ELEMENT_THEORY>SGP4</MEAN_ELEMENT_THEORY></metadata><data><meanElements><EPOCH>2025-12-11T06:19:25.734720</EPOCH><MEAN_MOTION>14.26675090</MEAN_MOTION><ECCENTRICITY>.00161868</ECCENTRICITY><INCLINATION>88.9962</INCLINATION><RA_OF_ASC_NODE>62.2003</RA_OF_ASC_NODE><ARG_OF_PERICENTER>46.8467</ARG_OF_PERICENTER><MEAN_ANOMALY>313.4076</MEAN_ANOMALY></meanElements><tleParameters><EPHEMERIS_TYPE>0</EPHEMERIS_TYPE><CLASSIFICATION_TYPE>U</CLASSIFICATION_TYPE><NORAD_CAT_ID>66043</NORAD_CAT_ID><ELEMENT_SET_NO>999</ELEMENT_SET_NO><REV_AT_EPOCH>783</REV_AT_EPOCH><BSTAR>.185427E-3</BSTAR><MEAN_MOTION_DOT>.463E-5</MEAN_MOTION_DOT><MEAN_MOTION_DDOT>0</MEAN_MOTION_DDOT></tleParameters></data></segment></body></omm>
<omm id="CCSDS_OMM_VERS" version="2.0">
<header><CREATION_DATE/><ORIGINATOR/></header><body><segment><metadata><OBJECT_NAME>QIANFAN-102</OBJECT_NAME><OBJECT_ID>2025-233M</OBJECT_ID><CENTER_NAME>EARTH</CENTER_NAME><REF_FRAME>TEME</REF_FRAME><TIME_SYSTEM>UTC</TIME_SYSTEM><MEAN_ELEMENT_THEORY>SGP4</MEAN_ELEMENT_THEORY></metadata><data><meanElements><EPOCH>2025-12-10T21:07:45.922368</EPOCH><MEAN_MOTION>13.87138439</MEAN_MOTION><ECCENTRICITY>.00169882</ECCENTRICITY><INCLINATION>88.9997</INCLINATION><RA_OF_ASC_NODE>62.3571</RA_OF_ASC_NODE><ARG_OF_PERICENTER>50.9133</ARG_OF_PERICENTER><MEAN_ANOMALY>309.3547</MEAN_ANOMALY></meanElements><tleParameters><EPHEMERIS_TYPE>0</EPHEMERIS_TYPE><CLASSIFICATION_TYPE>U</CLASSIFICATION_TYPE><NORAD_CAT_ID>66044</NORAD_CAT_ID><ELEMENT_SET_NO>999</ELEMENT_SET_NO><REV_AT_EPOCH>772</REV_AT_EPOCH><BSTAR>.21756842E-3</BSTAR><MEAN_MOTION_DOT>.269E-5</MEAN_MOTION_DOT><MEAN_MOTION_DDOT>0</MEAN_MOTION_DDOT></tleParameters></data></segment></body></omm>
<omm id="CCSDS_OMM_VERS" version="2.0">
<header><CREATION_DATE/><ORIGINATOR/></header><body><segment><metadata><OBJECT_NAME>QIANFAN-103</OBJECT_NAME><OBJECT_ID>2025-233N</OBJECT_ID><CENTER_NAME>EARTH</CENTER_NAME><REF_FRAME>TEME</REF_FRAME><TIME_SYSTEM>UTC</TIME_SYSTEM><MEAN_ELEMENT_THEORY>SGP4</MEAN_ELEMENT_THEORY></metadata><data><meanElements><EPOCH>2025-12-10T20:54:13.172256</EPOCH><MEAN_MOTION>13.84097266</MEAN_MOTION><ECCENTRICITY>.00170221</ECCENTRICITY><INCLINATION>88.9962</INCLINATION><RA_OF_ASC_NODE>62.3637</RA_OF_ASC_NODE><ARG_OF_PERICENTER>50.7556</ARG_OF_PERICENTER><MEAN_ANOMALY>309.5122</MEAN_ANOMALY></meanElements><tleParameters><EPHEMERIS_TYPE>0</EPHEMERIS_TYPE><CLASSIFICATION_TYPE>U</CLASSIFICATION_TYPE><NORAD_CAT_ID>66045</NORAD_CAT_ID><ELEMENT_SET_NO>999</ELEMENT_SET_NO><REV_AT_EPOCH>771</REV_AT_EPOCH><BSTAR>.26552527E-3</BSTAR><MEAN_MOTION_DOT>.309E-5</MEAN_MOTION_DOT><MEAN_MOTION_DDOT>0</MEAN_MOTION_DDOT></tleParameters></data></segment></body></omm>
<omm id="CCSDS_OMM_VERS" version="2.0">
<header><CREATION_DATE/><ORIGINATOR/></header><body><segment><metadata><OBJECT_NAME>QIANFAN-104</OBJECT_NAME><OBJECT_ID>2025-233P</OBJECT_ID><CENTER_NAME>EARTH</CENTER_NAME><REF_FRAME>TEME</REF_FRAME><TIME_SYSTEM>UTC</TIME_SYSTEM><MEAN_ELEMENT_THEORY>SGP4</MEAN_ELEMENT_THEORY></metadata><data><meanElements><EPOCH>2025-12-10T19:32:05.217792</EPOCH><MEAN_MOTION>13.86551077</MEAN_MOTION><ECCENTRICITY>.00187862</ECCENTRICITY><INCLINATION>88.9925</INCLINATION><RA_OF_ASC_NODE>62.3722</RA_OF_ASC_NODE><ARG_OF_PERICENTER>50.7401</ARG_OF_PERICENTER><MEAN_ANOMALY>309.5434</MEAN_ANOMALY></meanElements><tleParameters><EPHEMERIS_TYPE>0</EPHEMERIS_TYPE><CLASSIFICATION_TYPE>U</CLASSIFICATION_TYPE><NORAD_CAT_ID>66046</NORAD_CAT_ID><ELEMENT_SET_NO>999</ELEMENT_SET_NO><REV_AT_EPOCH>771</REV_AT_EPOCH><BSTAR>.26399831E-3</BSTAR><MEAN_MOTION_DOT>.32E-5</MEAN_MOTION_DOT><MEAN_MOTION_DDOT>0</MEAN_MOTION_DDOT></tleParameters></data></segment></body></omm>

</ndm>
