QIANFAN-97              
1 66039U 25233G   25345.00100580  .00000327  00000+0  27197-3 0  9992
2 66039  88.9961  62.3461 0017638  53.2952 306.9837 13.86104018  7735
QIANFAN-98              
1 66040U 25233H   25344.56598961  .00000131  00000+0  80750-4 0  9996
2 66040  88.9961  62.3370 0016518  51.4807 308.7850 13.99174995  7708
QIANFAN-99              
1 66041U 25233J   25345.21743814  .00000417  00000+0  36142-3 0  9991
2 66041  88.9960  62.3228 0017181  48.3777 311.8861 13.84332924  7763
QIANFAN-100             
1 66042U 25233K   25344.65754805  .00000522  00000+0  37575-3 0  9999
2 66042  88.9967  62.3183 0016340  51.9794 308.2854 13.95342302  7716
QIANFAN-101             
1 66043U 25233L   25345.26349230  .00000463  00000+0  18543-3 0  9998
2 66043  88.9962  62.2003 0016186  46.8467 313.4076 14.26675090  7835
QIANFAN-102             
1 66044U 25233M   25344.88039262  .00000269  00000+0  21757-3 0  9992
2 66044  88.9997  62.3571 0016988  50.9133 309.3547 13.87138439  7723
QIANFAN-103             
1 66045U 25233N   25344.87098579  .00000309  00000+0  26553-3 0  9992
2 66045  88.9962  62.3637 0017022  50.7556 309.5122 13.84097266  7715
QIANFAN-104             
1 66046U 25233P   25344.81394928  .00000320  00000+0  26400-3 0  9998
2 66046  88.9925  62.3722 0018786  50.7401 309.5434 13.86551077  7710
